STARLINK-31397          
1 59540U 24074G   26068.18224681  .00011242  00000+0  41827-3 0  9998
2 59540  43.0017 346.6585 0001248  41.9916 318.1032 15.27512537105936
TEVEL2-9                
1 63237U 25052AD  26068.70229538  .00018694  00000+0  67240-3 0  9992
2 63237  97.4057 324.3929 0007990 124.2475 235.9522 15.28633834 54816
